NORAD_CAT_ID,OBJECT_NAME,OBJECT_TYPE,EPOCH,MEAN_MOTION,ECCENTRICITY,INCLINATION,RA_OF_ASC_NODE,ARG_OF_PERICENTER,MEAN_ANOMALY,BSTAR,MEAN_MOTION_DOT,MEAN_MOTION_DDOT,TLE_LINE0,TLE_LINE1,TLE_LINE2,SEMIMAJOR_AXIS,PERIOD,APOGEE,PERIGEE,DECAYED
55274.0,STARLINK-5236,PAYLOAD,2023-10-08 10:41:01,14.98317243,0.0003107,69.9991,91.5955,271.1278,88.9525,-6.9522e-05,-9.22e-06,0.0,0 STARLINK-5236,1 55274U 23010F   23281.44515449 -.00000922  00000-0 -69522-4 0  9994,2 55274  69.9991  91.5955 0003107 271.1278  88.9525 14.98317243 40655,6950.232,96.108,574.257,569.938,0.0
55274.0,STARLINK-5236,PAYLOAD,2023-10-08 13:53:17,14.98321598,0.0003039,69.9993,91.2599,269.6091,90.472,-7.9605e-05,-1.042e-05,0.0,0 STARLINK-5236,1 55274U 23010F   23281.57867256 -.00001042  00000-0 -79605-4 0  9991,2 55274  69.9993  91.2599 0003039 269.6091  90.4720 14.98321598 40997,6950.219,96.108,574.196,569.972,0.0
55274.0,STARLINK-5236,PAYLOAD,2023-10-08 18:41:41,14.98325057,0.0003021,69.9992,90.7544,271.9104,88.1709,-4.5945e-05,-6.41e-06,0.0,0 STARLINK-5236,1 55274U 23010F   23281.77895050 -.00000641  00000-0 -45945-4 0  9990,2 55274  69.9992  90.7544 0003021 271.9104  88.1709 14.98325057 40706,6950.208,96.107,574.173,569.974,0.0
55274.0,STARLINK-5236,PAYLOAD,2023-10-08 20:17:49,14.98325724,0.0002983,69.9994,90.5865,270.4042,89.6776,-3.6189e-05,-5.25e-06,0.0,0 STARLINK-5236,1 55274U 23010F   23281.84570991 -.00000525  00000-0 -36189-4 0  9993,2 55274  69.9994  90.5865 0002983 270.4042  89.6776 14.98325724 41031,6950.206,96.107,574.144,569.998,0.0
55274.0,STARLINK-5236,PAYLOAD,2023-10-09 13:55:17,14.98331077,0.0002989,69.9992,88.7348,267.4783,92.6034,2.322e-05,1.84e-06,0.0,0 STARLINK-5236,1 55274U 23010F   23282.58006580  .00000184  00000-0  23220-4 0  9994,2 55274  69.9992  88.7348 0002989 267.4783  92.6034 14.98331077 41149,6950.19,96.107,574.132,569.977,0.0
55274.0,STARLINK-5236,PAYLOAD,2023-10-09 18:43:41,14.98337931,0.0002798,69.9992,88.2299,267.707,92.3768,-1.8117e-05,-3.09e-06,0.0,0 STARLINK-5236,1 55274U 23010F   23282.78034257 -.00000309  00000-0 -18117-4 0  9998,2 55274  69.9992  88.2299 0002798 267.7070  92.3768 14.98337931 40852,6950.168,96.106,573.978,570.089,0.0
55274.0,STARLINK-5236,PAYLOAD,2023-10-09 20:19:49,14.98334836,0.0002996,69.9994,88.0616,269.3556,90.726,6.4994e-05,6.83e-06,0.0,0 STARLINK-5236,1 55274U 23010F   23282.84710207  .00000683  00000-0  64994-4 0  9998,2 55274  69.9994  88.0616 0002996 269.3556  90.7260 14.98334836 41189,6950.178,96.107,574.125,569.961,0.0
55274.0,STARLINK-5236,PAYLOAD,2023-10-10 13:57:18,14.98335223,0.0002981,69.9994,86.21,268.9805,91.1012,0.00011928,1.331e-05,0.0,0 STARLINK-5236,1 55274U 23010F   23283.58145971  .00001331  00000-0  11928-3 0  9999,2 55274  69.9994  86.2100 0002981 268.9805  91.1012 14.98335223 41296,6950.177,96.107,574.114,569.97,0.0
55274.0,STARLINK-5236,PAYLOAD,2023-10-10 18:45:42,14.98337543,0.0002972,69.9996,85.7051,268.8366,91.2453,0.00013625,1.533e-05,0.0,0 STARLINK-5236,1 55274U 23010F   23283.78173685  .00001533  00000-0  13625-3 0  9994,2 55274  69.9996  85.7051 0002972 268.8366  91.2453 14.98337543 41004,6950.17,96.107,574.1,569.969,0.0
55274.0,STARLINK-5236,PAYLOAD,2023-10-10 20:21:50,14.98338667,0.0002987,69.9996,85.5368,269.3004,90.7812,0.0001444,1.631e-05,0.0,0 STARLINK-5236,1 55274U 23010F   23283.84849552  .00001631  00000-0  14440-3 0  9999,2 55274  69.9996  85.5368 0002987 269.3004  90.7812 14.98338667 41331,6950.166,96.106,574.107,569.955,0.0
55274.0,STARLINK-5236,PAYLOAD,2023-10-11 10:47:03,14.98334431,0.0002675,70.0009,84.0228,269.1366,90.9487,-4.7243e-05,-6.57e-06,0.0,0 STARLINK-5236,1 55274U 23010F   23284.44934256 -.00000657  00000-0 -47243-4 0  9999,2 55274  70.0009  84.0228 0002675 269.1366  90.9487 14.98334431 41101,6950.179,96.107,573.903,570.185,0.0
55274.0,STARLINK-5236,PAYLOAD,2023-10-11 13:59:19,14.98331565,0.0002754,70.0008,83.6855,268.776,91.3083,-5.1682e-05,-7.1e-06,0.0,0 STARLINK-5236,1 55274U 23010F   23284.58286380 -.00000710  00000-0 -51682-4 0  9994,2 55274  70.0008  83.6855 0002754 268.7760  91.3083 14.98331565 41441,6950.188,96.107,573.967,570.139,0.0
55274.0,STARLINK-5236,PAYLOAD,2023-10-12 10:49:03,14.98337791,0.0002997,70.0,81.4964,267.4536,92.628,-6.0534e-05,-8.15e-06,0.0,0 STARLINK-5236,1 55274U 23010F   23285.45073715 -.00000815  00000-0 -60534-4 0  9999,2 55274  70.0000  81.4964 0002997 267.4536  92.6280 14.98337791 41255,6950.169,96.106,574.117,569.951,0.0
55274.0,STARLINK-5236,PAYLOAD,2023-10-12 12:25:11,14.9833698,0.0003015,70.0,81.3281,267.5594,92.522,-6.8363e-05,-9.09e-06,0.0,0 STARLINK-5236,1 55274U 23010F   23285.51749750 -.00000909  00000-0 -68363-4 0  9997,2 55274  70.0000  81.3281 0003015 267.5594  92.5220 14.98336980 41581,6950.171,96.107,574.132,569.941,0.0
55274.0,STARLINK-5236,PAYLOAD,2023-10-12 20:25:51,14.98340523,0.0003047,70.0002,80.4872,269.0457,91.0352,-3.0002e-05,-4.51e-06,0.0,0 STARLINK-5236,1 55274U 23010F   23285.85129254 -.00000451  00000-0 -30002-4 0  9996,2 55274  70.0002  80.4872 0003047 269.0457  91.0352 14.98340523 41633,6950.16,96.106,574.143,569.908,0.0
55274.0,STARLINK-5236,PAYLOAD,2023-10-13 12:27:12,14.98329099,0.0002871,70.0008,78.8048,267.7041,92.379,3.5262e-05,3.28e-06,0.0,0 STARLINK-5236,1 55274U 23010F   23286.51889654  .00000328  00000-0  35262-4 0  9991,2 55274  70.0008  78.8048 0002871 267.7041  92.3790 14.98329099 41414,6950.196,96.107,574.056,570.065,0.0
55274.0,STARLINK-5236,PAYLOAD,2023-10-13 14:03:20,14.98328075,0.0002936,70.0005,78.6355,268.8242,91.258,2.3432e-05,1.87e-06,0.0,0 STARLINK-5236,1 55274U 23010F   23286.58565753  .00000187  00000-0  23432-4 0  9998,2 55274  70.0005  78.6355 0002936 268.8242  91.2580 14.98328075 41741,6950.199,96.107,574.104,570.023,0.0
55274.0,STARLINK-5236,PAYLOAD,2023-10-13 20:27:52,14.98332613,0.0002871,70.0008,77.9639,266.4125,93.6706,4.321e-05,4.23e-06,0.0,0 STARLINK-5236,1 55274U 23010F   23286.85269387  .00000423  00000-0  43210-4 0  9991,2 55274  70.0008  77.9639 0002871 266.4125  93.6706 14.98332613 41786,6950.185,96.107,574.045,570.054,0.0
55274.0,STARLINK-5236,PAYLOAD,2023-10-14 14:05:22,14.98296441,0.000299,70.0011,76.1127,264.6799,95.4019,0.00056197,6.613e-05,0.0,0 STARLINK-5236,1 55274U 23010F   23287.58706349  .00006613  00000-0  56197-3 0  9990,2 55274  70.0011  76.1127 0002990 264.6799  95.4019 14.98296441 41899,6950.297,96.109,574.24,570.084,0.0
55274.0,STARLINK-5236,PAYLOAD,2023-10-14 20:29:52,14.98392113,0.0002478,70.0009,75.4385,256.5444,103.5439,-0.0010377,-0.00012472,0.0,0 STARLINK-5236,1 55274U 23010F   23287.85407990 -.00012472  00000-0 -10377-2 0  9991,2 55274  70.0009  75.4385 0002478 256.5444 103.5439 14.98392113 41612,6950.001,96.103,573.588,570.144,0.0
55274.0,STARLINK-5236,PAYLOAD,2023-10-15 10:55:06,14.98326996,0.0002749,70.001,73.9238,268.6252,91.4592,-4.8028e-05,-6.66e-06,0.0,0 STARLINK-5236,1 55274U 23010F   23288.45493876 -.00000666  00000-0 -48028-4 0  9994,2 55274  70.0010  73.9238 0002749 268.6252  91.4592 14.98326996 41707,6950.202,96.107,573.978,570.157,0.0
55274.0,STARLINK-5236,PAYLOAD,2023-10-15 14:07:22,14.98326935,0.0002749,70.0011,73.5872,268.6391,91.4454,-4.6582e-05,-6.49e-06,0.0,0 STARLINK-5236,1 55274U 23010F   23288.58845893 -.00000649  00000-0 -46582-4 0  9992,2 55274  70.0011  73.5872 0002749 268.6391  91.4454 14.98326935 42040,6950.202,96.107,573.978,570.157,0.0
55274.0,STARLINK-5236,PAYLOAD,2023-10-15 18:55:47,14.98326903,0.0002762,70.0011,73.0824,267.661,92.4233,-4.5816e-05,-6.4e-06,0.0,0 STARLINK-5236,1 55274U 23010F   23288.78873917 -.00000640  00000-0 -45816-4 0  9992,2 55274  70.0011  73.0824 0002762 267.6610  92.4233 14.98326903 42074,6950.202,96.107,573.987,570.148,0.0
55274.0,STARLINK-5236,PAYLOAD,2023-10-16 10:57:07,14.98330045,0.0002917,70.0009,71.3987,269.2332,90.8493,-1.5792e-06,-1.12e-06,0.0,0 STARLINK-5236,1 55274U 23010F   23289.45633633 -.00000112  00000-0 -15792-5 0  9991,2 55274  70.0009  71.3987 0002917 269.2332  90.8493 14.98330045 41850,6950.193,96.107,574.085,570.03,0.0
55274.0,STARLINK-5236,PAYLOAD,2023-10-16 14:09:23,14.98330042,0.0002917,70.0009,71.0621,269.2473,90.8352,-7.1107e-07,-1.01e-06,0.0,0 STARLINK-5236,1 55274U 23010F   23289.58985630 -.00000101  00000-0 -71107-6 0  9993,2 55274  70.0009  71.0621 0002917 269.2473  90.8352 14.98330042 42197,6950.193,96.107,574.085,570.03,0.0
55274.0,STARLINK-5236,PAYLOAD,2023-10-16 17:21:39,14.98330941,0.0002902,70.0009,70.7255,269.2023,90.8803,1.1019e-05,3.9e-07,0.0,0 STARLINK-5236,1 55274U 23010F   23289.72337538  .00000039  00000-0  11019-4 0  9999,2 55274  70.0009  70.7255 0002902 269.2023  90.8803 14.98330941 42213,6950.19,96.107,574.072,570.038,0.0
55274.0,STARLINK-5236,PAYLOAD,2023-10-17 10:59:08,14.98327289,0.0002976,70.0008,68.8739,269.8553,90.2265,2.1468e-05,1.63e-06,0.0,0 STARLINK-5236,1 55274U 23010F   23290.45773778  .00000163  00000-0  21468-4 0  9998,2 55274  70.0008  68.8739 0002976 269.8553  90.2265 14.98327289 42006,6950.201,96.107,574.135,569.998,0.0
55274.0,STARLINK-5236,PAYLOAD,2023-10-17 12:35:16,14.98327202,0.0002978,70.0008,68.7056,269.8563,90.2255,2.0254e-05,1.49e-06,0.0,0 STARLINK-5236,1 55274U 23010F   23290.52449795  .00000149  00000-0  20254-4 0  9991,2 55274  70.0008  68.7056 0002978 269.8563  90.2255 14.98327202 42330,6950.202,96.107,574.136,569.997,0.0
55274.0,STARLINK-5236,PAYLOAD,2023-10-18 03:00:29,14.98330324,0.0002972,70.0008,67.1898,271.1169,88.965,2.5848e-05,2.15e-06,0.0,0 STARLINK-5236,1 55274U 23010F   23291.12533611  .00000215  00000-0  25848-4 0  9997,2 55274  70.0008  67.1898 0002972 271.1169  88.9650 14.98330324 42421,6950.192,96.107,574.122,569.991,0.0
55274.0,STARLINK-5236,PAYLOAD,2023-10-18 12:37:17,14.98329539,0.0002949,70.0007,66.18,271.0725,89.0096,-1.4449e-06,-1.1e-06,0.0,0 STARLINK-5236,1 55274U 23010F   23291.52589734 -.00000110  00000-0 -14449-5 0  9990,2 55274  70.0007  66.1800 0002949 271.0725  89.0096 14.98329539 42166,6950.194,96.107,574.109,570.01,0.0
